ONEWEB-0628             
1 55169U 23004AF  25346.08939466 -.00004219  00000+0 -11774-1 0  9998
2 55169  87.8942  27.8160 0002252 112.8106 247.3261 13.12408342143494
ONEWEB-0629             
1 55170U 23004AG  25346.23458157  .00000047  00000+0  88819-4 0  9990
2 55170  87.9111  43.0518 0002040 106.0635 254.0721 13.17649255142961
ONEWEB-0631             
1 55171U 23004AH  25346.14143959 -.00000005  00000+0 -45990-4 0  9991
2 55171  87.9186  12.5813 0001248  85.9938 274.1337 13.18686433145029
ONEWEB-0709             
1 55172U 23004AJ  25346.20094141  .00000529  00000+0  14559-2 0  9991
2 55172  87.8859  58.3223 0001341  71.4750 288.6524 13.11418789141366
ONEWEB-0710             
1 55173U 23004AK  25346.17299072 -.00000188  00000+0 -51733-3 0  9997
2 55173  87.9117  43.0584 0001686 105.9970 254.1348 13.17648754142956
ONEWEB-0711             
1 55174U 23004AL  25346.24843871 -.00000159  00000+0 -48563-3 0  9993
2 55174  87.8876  58.2878 0001755 131.6122 228.5157 13.11414384141332
ONEWEB-0713             
1 55175U 23004AM  25346.26708448  .00000559  00000+0  15412-2 0  9994
2 55175  87.8860  58.2848 0001461 118.0633 242.0643 13.11417208141321
ONEWEB-0715             
1 55176U 23004AN  25346.26198299  .00000441  00000+0  12088-2 0  9998
2 55176  87.8866  58.2867 0001062  88.2684 271.8566 13.11420544141365
